NORAD_CAT_ID,OBJECT_NAME,OBJECT_TYPE,EPOCH,MEAN_MOTION,ECCENTRICITY,INCLINATION,RA_OF_ASC_NODE,ARG_OF_PERICENTER,MEAN_ANOMALY,BSTAR,MEAN_MOTION_DOT,MEAN_MOTION_DDOT,TLE_LINE0,TLE_LINE1,TLE_LINE2,SEMIMAJOR_AXIS,PERIOD,APOGEE,PERIGEE,DECAYED
52843.0,STARLINK-4188,PAYLOAD,2023-02-03 11:11:30,15.08838544,0.0001489,53.216,67.8947,104.5729,255.5428,9.7848e-05,1.27e-05,0.0,0 STARLINK-4188,1 52843U 22062P   23034.46632867  .00001270  00000-0  97848-4 0  9998,2 52843  53.2160  67.8947 0001489 104.5729 255.5428 15.08838544 35164,6917.885,95.438,540.78,538.72,0.0
52843.0,STARLINK-4188,PAYLOAD,2023-02-04 07:51:31,15.08847649,0.0001403,53.2167,64.0297,99.5042,260.6109,0.00017696,2.53e-05,0.0,0 STARLINK-4188,1 52843U 22062P   23035.32744489  .00002530  00000-0  17696-3 0  9990,2 52843  53.2167  64.0297 0001403  99.5042 260.6109 15.08847649 35782,6917.857,95.437,540.693,538.751,0.0
52843.0,STARLINK-4188,PAYLOAD,2023-02-04 11:02:17,15.08850013,0.0001587,53.2156,63.4338,101.2781,258.839,0.00027288,4.059e-05,0.0,0 STARLINK-4188,1 52843U 22062P   23035.45992392  .00004059  00000-0  27288-3 0  9998,2 52843  53.2156  63.4338 0001587 101.2781 258.8390 15.08850013 35312,6917.85,95.437,540.813,538.617,0.0
52843.0,STARLINK-4188,PAYLOAD,2023-02-04 18:59:13,15.08844706,0.000145,53.2164,61.9477,80.7331,279.3825,9.3331e-05,1.198e-05,0.0,0 STARLINK-4188,1 52843U 22062P   23035.79112653  .00001198  00000-0  93331-4 0  9993,2 52843  53.2164  61.9477 0001450  80.7331 279.3825 15.08844706 35367,6917.866,95.437,540.734,538.728,0.0
52843.0,STARLINK-4188,PAYLOAD,2023-02-05 01:20:46,15.08838273,0.0001495,53.2161,60.7583,83.3028,276.8134,6.9668e-05,8.21e-06,0.0,0 STARLINK-4188,1 52843U 22062P   23036.05609037  .00000821  00000-0  69668-4 0  9998,2 52843  53.2161  60.7583 0001495  83.3028 276.8134 15.08838273 35895,6917.886,95.438,540.785,538.716,0.0
52843.0,STARLINK-4188,PAYLOAD,2023-02-05 10:53:04,15.08842314,0.0001485,53.2153,58.9732,85.9535,274.1627,8.997e-05,1.144e-05,0.0,0 STARLINK-4188,1 52843U 22062P   23036.45352908  .00001144  00000-0  89970-4 0  9991,2 52843  53.2153  58.9732 0001485  85.9535 274.1627 15.08842314 35463,6917.873,95.437,540.766,538.711,0.0
52843.0,STARLINK-4188,PAYLOAD,2023-02-05 18:50:00,15.08843264,0.0001463,53.2151,57.4869,81.854,278.2618,6.6764e-05,7.75e-06,0.0,0 STARLINK-4188,1 52843U 22062P   23036.78472766  .00000775  00000-0  66764-4 0  9997,2 52843  53.2151  57.4869 0001463  81.8540 278.2618 15.08843264 35519,6917.87,95.437,540.747,538.723,0.0
52843.0,STARLINK-4188,PAYLOAD,2023-02-06 05:57:42,15.08847834,0.0001413,53.2158,55.4051,90.782,269.3334,9.9701e-05,1.299e-05,0.0,0 STARLINK-4188,1 52843U 22062P   23037.24840540  .00001299  00000-0  99701-4 0  9997,2 52843  53.2158  55.4051 0001413  90.7820 269.3334 15.08847834 36077,6917.856,95.437,540.699,538.744,0.0
52843.0,STARLINK-4188,PAYLOAD,2023-02-06 09:08:28,15.08851426,0.000142,53.2156,54.81,89.5196,270.5959,0.00017658,2.524e-05,0.0,0 STARLINK-4188,1 52843U 22062P   23037.38088367  .00002524  00000-0  17658-3 0  9995,2 52843  53.2156  54.8100 0001420  89.5196 270.5959 15.08851426 35600,6917.845,95.437,540.693,538.728,0.0
52843.0,STARLINK-4188,PAYLOAD,2023-02-06 18:40:47,15.08849027,0.000141,53.2157,53.0258,91.9889,268.1265,0.00012687,1.732e-05,0.0,0 STARLINK-4188,1 52843U 22062P   23037.77832349  .00001732  00000-0  12687-3 0  9992,2 52843  53.2157  53.0258 0001410  91.9889 268.1265 15.08849027 35664,6917.853,95.437,540.693,538.742,0.0
52843.0,STARLINK-4188,PAYLOAD,2023-02-07 07:23:52,15.08853134,0.0001515,53.2154,50.6465,100.4173,259.699,0.00025337,3.748e-05,0.0,0 STARLINK-4188,1 52843U 22062P   23038.30824096  .00003748  00000-0  25337-3 0  9997,2 52843  53.2154  50.6465 0001515 100.4173 259.6990 15.08853134 36230,6917.84,95.437,540.753,538.657,0.0
52843.0,STARLINK-4188,PAYLOAD,2023-02-08 07:14:39,15.08844732,0.0001378,53.2159,46.1865,107.2852,252.8292,6.6684e-05,7.74e-06,0.0,0 STARLINK-4188,1 52843U 22062P   23039.30184326  .00000774  00000-0  66684-4 0  9990,2 52843  53.2159  46.1865 0001378 107.2852 252.8292 15.08844732 36385,6917.866,95.437,540.684,538.778,0.0
52843.0,STARLINK-4188,PAYLOAD,2023-02-09 07:05:26,15.08838324,0.0001165,53.2161,41.7274,89.5797,270.5329,8.7607e-05,1.107e-05,0.0,0 STARLINK-4188,1 52843U 22062P   23040.29545014  .00001107  00000-0  87607-4 0  9994,2 52843  53.2161  41.7274 0001165  89.5797 270.5329 15.08838324 36532,6917.886,95.438,540.556,538.945,0.0
52843.0,STARLINK-4188,PAYLOAD,2023-02-09 10:16:12,15.08843901,0.0001224,53.2164,41.1308,100.9573,259.1557,0.00011609,1.56e-05,0.0,0 STARLINK-4188,1 52843U 22062P   23040.42792811  .00001560  00000-0  11609-3 0  9999,2 52843  53.2164  41.1308 0001224 100.9573 259.1557 15.08843901 36064,6917.868,95.437,540.58,538.887,0.0
52843.0,STARLINK-4188,PAYLOAD,2023-02-09 16:37:45,15.08834601,0.0001107,53.2163,39.9395,85.2797,274.8322,5.0201e-05,5.11e-06,0.0,0 STARLINK-4188,1 52843U 22062P   23040.69289035  .00000511  00000-0  50201-4 0  9994,2 52843  53.2163  39.9395 0001107  85.2797 274.8322 15.08834601 36103,6917.897,95.438,540.528,538.996,0.0
52843.0,STARLINK-4188,PAYLOAD,2023-02-10 00:34:41,15.08829102,0.00011,53.2176,38.4546,104.6274,255.484,-1.0043e-05,-4.48e-06,0.0,0 STARLINK-4188,1 52843U 22062P   23041.02409579 -.00000448  00000-0 -10043-4 0  9990,2 52843  53.2176  38.4546 0001100 104.6274 255.4840 15.08829102 36153,6917.914,95.438,540.54,539.018,0.0
52843.0,STARLINK-4188,PAYLOAD,2023-02-10 06:56:13,15.08845124,0.0001358,53.2185,37.2705,114.4896,245.6238,0.00024287,3.58e-05,0.0,0 STARLINK-4188,1 52843U 22062P   23041.28904973  .00003580  00000-0  24287-3 0  9998,2 52843  53.2185  37.2705 0001358 114.4896 245.6238 15.08845124 36199,6917.865,95.437,540.669,538.79,0.0
52843.0,STARLINK-4188,PAYLOAD,2023-02-11 05:11:38,15.08842058,0.000151,53.2166,33.1036,97.8249,262.2915,0.00018678,2.686e-05,0.0,0 STARLINK-4188,1 52843U 22062P   23042.21641437  .00002686  00000-0  18678-3 0  9998,2 52843  53.2166  33.1036 0001510  97.8249 262.2915 15.08842058 36826,6917.874,95.437,540.784,538.694,0.0
52843.0,STARLINK-4188,PAYLOAD,2023-02-11 06:47:01,15.0884684,0.0001548,53.2171,32.8064,95.0643,265.0526,0.00026352,3.909e-05,0.0,0 STARLINK-4188,1 52843U 22062P   23042.28265247  .00003909  00000-0  26352-3 0  9993,2 52843  53.2171  32.8064 0001548  95.0643 265.0526 15.08846840 36347,6917.859,95.437,540.795,538.654,0.0
52843.0,STARLINK-4188,PAYLOAD,2023-02-12 08:13:11,15.08848359,0.0001644,53.2171,28.0497,84.5106,275.6073,0.0001113,1.484e-05,0.0,0 STARLINK-4188,1 52843U 22062P   23043.34249156  .00001484  00000-0  11130-3 0  9996,2 52843  53.2171  28.0497 0001644  84.5106 275.6073 15.08848359 36990,6917.855,95.437,540.857,538.583,0.0
52843.0,STARLINK-4188,PAYLOAD,2023-02-12 22:31:40,15.08834787,0.0002012,53.2179,25.374,75.954,284.1676,-5.4447e-05,-1.155e-05,0.0,0 STARLINK-4188,1 52843U 22062P   23043.93866187 -.00001155  00000-0 -54447-4 0  9996,2 52843  53.2179  25.3740 0002012  75.9540 284.1676 15.08834787 37080,6917.896,95.438,541.153,538.369,0.0
52843.0,STARLINK-4188,PAYLOAD,2023-02-13 04:53:12,15.08841674,0.0001469,53.2175,24.1824,81.1777,278.9381,6.3439e-05,7.22e-06,0.0,0 STARLINK-4188,1 52843U 22062P   23044.20361744  .00000722  00000-0  63439-4 0  9994,2 52843  53.2175  24.1824 0001469  81.1777 278.9381 15.08841674 37124,6917.875,95.437,540.757,538.724,0.0
52843.0,STARLINK-4188,PAYLOAD,2023-02-14 01:33:14,15.08815485,0.0001388,53.2167,20.3147,99.9566,260.1583,-0.00023366,-4.002e-05,0.0,0 STARLINK-4188,1 52843U 22062P   23045.06475496 -.00004002  00000-0 -23366-3 0  9990,2 52843  53.2167  20.3147 0001388  99.9566 260.1583 15.08815485 37256,6917.955,95.439,540.781,538.86,0.0
52843.0,STARLINK-4188,PAYLOAD,2023-02-14 04:44:01,15.08818291,0.0001271,53.2169,19.7211,93.0004,267.1134,-0.0001234,-2.25e-05,0.0,0 STARLINK-4188,1 52843U 22062P   23045.19723670 -.00002250  00000-0 -12340-3 0  9997,2 52843  53.2169  19.7211 0001271  93.0004 267.1134 15.08818291 36789,6917.947,95.439,540.691,538.932,0.0
52843.0,STARLINK-4188,PAYLOAD,2023-02-14 20:37:52,15.08843353,0.0001499,53.2164,16.7474,92.0348,268.0816,0.00041416,6.31e-05,0.0,0 STARLINK-4188,1 52843U 22062P   23045.85963013  .00006310  00000-0  41416-3 0  9992,2 52843  53.2164  16.7474 0001499  92.0348 268.0816 15.08843353 37374,6917.87,95.437,540.772,538.698,0.0
52843.0,STARLINK-4188,PAYLOAD,2023-02-15 04:34:47,15.08887715,0.0001391,53.2168,15.2621,91.1996,268.9155,0.0023734,0.00037737,0.0,0 STARLINK-4188,1 52843U 22062P   23046.19082850  .00037737  00000-0  23734-2 0  9990,2 52843  53.2168  15.2621 0001391  91.1996 268.9155 15.08887715 37427,6917.735,95.435,540.562,538.637,0.0
52843.0,STARLINK-4188,PAYLOAD,2023-02-15 22:04:01,15.08894143,0.0001082,53.2167,11.9896,75.9798,284.1314,0.0025597,0.00040746,0.0,0 STARLINK-4188,1 52843U 22062P   23046.91945912  .00040746  00000-0  25597-2 0  9990,2 52843  53.2167  11.9896 0001082  75.9798 284.1314 15.08894143 37532,6917.715,95.434,540.328,538.831,0.0
52843.0,STARLINK-4188,PAYLOAD,2023-02-16 02:50:10,15.08891199,0.0001398,53.2166,11.0976,87.6225,272.4927,0.0021181,0.0003363,0.0,0 STARLINK-4188,1 52843U 22062P   23047.11817435  .00033630  00000-0  21181-2 0  9990,2 52843  53.2166  11.0976 0001398  87.6225 272.4927 15.08891199 37567,6917.724,95.434,540.556,538.622,0.0
52843.0,STARLINK-4188,PAYLOAD,2023-02-16 13:57:52,15.08854432,0.0001674,53.2168,9.0166,85.5651,274.5532,0.0027686,0.00044068,0.0,0 STARLINK-4188,1 52843U 22062P   23047.58185564  .00044068  00000-0  27686-2 0  9995,2 52843  53.2168   9.0166 0001674  85.5651 274.5532 15.08854432 37636,6917.836,95.437,540.859,538.543,0.0
52843.0,STARLINK-4188,PAYLOAD,2023-02-16 17:08:38,15.08812855,0.0001207,53.2168,8.422,102.6836,257.4291,3.7666e-05,3.11e-06,0.0,0 STARLINK-4188,1 52843U 22062P   23047.71433593  .00000311  00000-0  37666-4 0  9992,2 52843  53.2168   8.4220 0001207 102.6836 257.4291 15.08812855 37161,6917.963,95.439,540.663,538.993,0.0
